FENGYUN 3D              
1 43010U 17072A   26201.62280786  .00000133  00000+0  84891-4 0  9995
2 43010  99.0154 176.6531 0001216   3.1078 357.0104 14.19745416449735
NOAA 20 (JPSS-1)        
1 43013U 17073A   26201.55278409  .00000026  00000+0  33455-4 0  9991
2 43013  98.7772 140.7200 0001571 118.8799 241.2535 14.19517145449203
GOES 17                 
1 43226U 18022A   26201.45802227 -.00000184  00000+0  00000+0 0  9993
2 43226   1.0205  85.1844 0000585  60.2896 228.1441  1.00272190 30755
SENTINEL-3B             
1 43437U 18039A   26201.43125849  .00000041  00000+0  35094-4 0  9998
2 43437  98.6232 268.4837 0001258 118.8128 241.3179 14.26737312428867
FENGYUN 2H              
1 43491U 18050A   26201.63397259 -.00000128  00000+0  00000+0 0  9990
2 43491   3.1157  78.6854 0002099 129.8385  37.1560  1.00267096 29772
METOP-C                 
1 43689U 18087A   26201.57240644  .00000041  00000+0  38478-4 0  9995
2 43689  98.6625 260.5626 0002103  86.8451 273.2967 14.21503814399571
GEO-KOMPSAT-2A          
1 43823U 18100A   26201.35861285 -.00000345  00000+0  00000+0 0  9990
2 43823   0.0290 147.0193 0002402 310.4373  98.0368  1.00272350 27965
METEOR-M2 2             
1 44387U 19038A   26201.61149891 -.00000221  00000+0 -75793-4 0  9998
2 44387  98.9170 189.3936 0000387 354.8819   5.2355 14.24372571366053
ARKTIKA-M 1             
1 47719U 21016A   26195.40739072 -.00000301  00000+0  00000+0 0  9996
2 47719  63.2662  53.6722 7297332 270.0591  14.4994  2.00611590 39330
FENGYUN 3E              
1 49008U 21062A   26201.60298894 -.00000141  00000+0 -45569-4 0  9999
2 49008  98.7507 204.6398 0002016  30.2211 329.9081 14.19906273261327
GOES 18                 
1 51850U 22021A   26201.50113999  .00000095  00000+0  00000+0 0  9996
2 51850   0.0171 115.0207 0000368  28.9228 197.7344  1.00272079  6924
NOAA 21 (JPSS-2)        
1 54234U 22150A   26201.58499540  .00000023  00000+0  31645-4 0  9990
2 54234  98.7059 139.8133 0002920  94.7914 265.3596 14.19541617191289
METEOSAT-12 (MTG-I1)    
1 54743U 22170C   26201.33313275 -.00000010  00000+0  00000+0 0  9993
2 54743   0.7304  20.6169 0004048  81.0349 316.0040  1.00269293 13318
TIANMU-1 03             
1 55973U 23039A   26201.60475098  .00009640  00000+0  18541-3 0  9996
2 55973  97.5252  16.9076 0002100   6.7915 353.3363 15.48139637186009
TIANMU-1 04             
1 55974U 23039B   26201.64559256  .00010014  00000+0  18835-3 0  9993
2 55974  97.5192  16.1068 0002470 351.0979   9.0227 15.48771720186023
TIANMU-1 05             
1 55975U 23039C   26201.58715356  .00009289  00000+0  17920-3 0  9998
2 55975  97.5236  16.4920 0002484  32.5101 327.6302 15.48064201185982
TIANMU-1 06             
1 55976U 23039D   26201.65114146  .00009680  00000+0  18279-3 0  9990
2 55976  97.5244  17.2284 0002520  21.6042 338.5314 15.48666817186029
FENGYUN 3G              
1 56232U 23055A   26201.49298863  .00014067  00000+0  22029-3 0  9998
2 56232  49.9914 174.2253 0006863  81.0613 279.1131 15.53942001185189
METEOR-M2 3             
1 57166U 23091A   26201.61355073 -.00000035  00000+0  34008-5 0  9999
2 57166  98.6065 255.9046 0005086  78.2459 281.9290 14.24049191159276
TIANMU-1 07             
1 57399U 23101A   26201.58596772  .00003624  00000+0  12676-3 0  9999
2 57399  97.2573 251.4915 0003366  53.4241 306.7309 15.30152130166756
TIANMU-1 08             
1 57400U 23101B   26201.55252194  .00003552  00000+0  12429-3 0  9992
2 57400  97.2562 251.2246 0004083  31.7184 328.4302 15.30155231166742
TIANMU-1 09             
1 57401U 23101C   26201.60053257  .00003685  00000+0  12865-3 0  9999
2 57401  97.2520 250.6703 0003946  52.5391 307.6209 15.30197672166757
TIANMU-1 10             
1 57402U 23101D   26201.56877105  .00003666  00000+0  12811-3 0  9991
2 57402  97.2600 251.7240 0005153  39.6539 320.5078 15.30171061166748
FENGYUN 3F              
1 57490U 23111A   26201.58609748  .00000003  00000+0  21720-4 0  9999
2 57490  98.6821 270.9700 0001170  75.2021 284.9285 14.19943969153600
ARKTIKA-M 2             
1 58584U 23198A   26196.17500106  .00000129  00000+0  00000+0 0  9997
2 58584  63.2178 151.2342 6910736 267.3397  18.7345  2.00608092 18886
TIANMU-1 11             
1 58645U 23205A   26201.60139878  .00003136  00000+0  11997-3 0  9995
2 58645  97.3446 222.6397 0007051 238.0025 122.0529 15.27295386142621
TIANMU-1 12             
1 58646U 23205B   26199.41207066  .00002823  00000+0  10887-3 0  9995
2 58646  97.3431 220.2298 0006094 220.4884 139.5903 15.27114343142277
TIANMU-1 13             
1 58647U 23205C   26201.60786146  .00003205  00000+0  12321-3 0  9992
2 58647  97.3462 222.6728 0006421 191.2096 168.9001 15.27120813142601
TIANMU-1 14             
1 58648U 23205D   26201.59210006  .00003204  00000+0  12300-3 0  9994
2 58648  97.3399 221.8130 0007012 198.5272 161.5713 15.27164658142606
TIANMU-1 19             
1 58660U 23208A   26201.60221475  .00005020  00000+0  16488-3 0  9994
2 58660  97.4525 318.0886 0005131 178.9933 181.1320 15.32025380142443
