OBJECT_NAME,OBJECT_ID,EPOCH,MEAN_MOTION,ECCENTRICITY,INCLINATION,RA_OF_ASC_NODE,ARG_OF_PERICENTER,MEAN_ANOMALY,EPHEMERIS_TYPE,CLASSIFICATION_TYPE,NORAD_CAT_ID,ELEMENT_SET_NO,REV_AT_EPOCH,BSTAR,MEAN_MOTION_DOT,MEAN_MOTION_DDOT
FENGYUN 3D,2017-072A,2026-07-20T14:56:50.599104,14.19745416,.00012167,99.0154,176.6531,3.1078,357.0104,0,U,43010,999,44973,.84891004E-4,.133E-5,0
NOAA 20 (JPSS-1),2017-073A,2026-07-20T13:16:00.545376,14.19517145,.00015717,98.7772,140.7200,118.8799,241.2535,0,U,43013,999,44920,.33454671E-4,.26E-6,0
GOES 17,2018-022A,2026-07-20T10:59:33.124128,1.00272190,.00005855,1.0205,85.1844,60.2896,228.1441,0,U,43226,999,3075,0,-.184E-5,0
SENTINEL-3B,2018-039A,2026-07-20T10:21:00.733536,14.26737312,.0001258,98.6232,268.4837,118.8128,241.3179,0,U,43437,999,42886,.35094275E-4,.41E-6,0
FENGYUN 2H,2018-050A,2026-07-20T15:12:55.231776,1.00267096,.00020995,3.1157,78.6854,129.8385,37.1560,0,U,43491,999,2977,0,-.128E-5,0
METOP-C,2018-087A,2026-07-20T13:44:15.916416,14.21503814,.00021036,98.6625,260.5626,86.8451,273.2967,0,U,43689,999,39957,.38477946E-4,.41E-6,0
GEO-KOMPSAT-2A,2018-100A,2026-07-20T08:36:24.150240,1.00272350,.00024021,0.0290,147.0193,310.4373,98.0368,0,U,43823,999,2796,0,-.345E-5,0
METEOR-M2 2,2019-038A,2026-07-20T14:40:33.505824,14.24372571,.00003875,98.9170,189.3936,354.8819,5.2355,0,U,44387,999,36605,-.75793099E-4,-.221E-5,0
ARKTIKA-M 1,2021-016A,2026-07-14T09:46:38.558208,2.00611590,.7297332,63.2662,53.6722,270.0591,14.4994,0,U,47719,999,3933,0,-.301E-5,0
FENGYUN 3E,2021-062A,2026-07-20T14:28:18.244416,14.19906273,.00020163,98.7507,204.6398,30.2211,329.9081,0,U,49008,999,26132,-.45568821E-4,-.141E-5,0
GOES 18,2022-021A,2026-07-20T12:01:38.495136,1.00272079,.00003684,0.0171,115.0207,28.9228,197.7344,0,U,51850,999,692,0,.95E-6,0
NOAA 21 (JPSS-2),2022-150A,2026-07-20T14:02:23.602560,14.19541617,.00029207,98.7059,139.8133,94.7914,265.3596,0,U,54234,999,19128,.31645209E-4,.23E-6,0
METEOSAT-12 (MTG-I1),2022-170C,2026-07-20T07:59:42.669600,1.00269293,.00040485,0.7304,20.6169,81.0349,316.0040,0,U,54743,999,1331,0,-.1E-6,0
TIANMU-1 03,2023-039A,2026-07-20T14:30:50.484672,15.48139637,.00021001,97.5252,16.9076,6.7915,353.3363,0,U,55973,999,18600,.18540569E-3,.964E-4,0
TIANMU-1 04,2023-039B,2026-07-20T15:29:39.197184,15.48771720,.00024701,97.5192,16.1068,351.0979,9.0227,0,U,55974,999,18602,.18834851E-3,.10014E-3,0
TIANMU-1 05,2023-039C,2026-07-20T14:05:30.067584,15.48064201,.00024842,97.5236,16.4920,32.5101,327.6302,0,U,55975,999,18598,.17919684E-3,.9289E-4,0
TIANMU-1 06,2023-039D,2026-07-20T15:37:38.622144,15.48666817,.00025204,97.5244,17.2284,21.6042,338.5314,0,U,55976,999,18602,.18279236E-3,.968E-4,0
FENGYUN 3G,2023-055A,2026-07-20T11:49:54.217632,15.53942001,.0006863,49.9914,174.2253,81.0613,279.1131,0,U,56232,999,18518,.22029103E-3,.14067E-3,0
METEOR-M2 3,2023-091A,2026-07-20T14:43:30.783072,14.24049191,.00050862,98.6065,255.9046,78.2459,281.9290,0,U,57166,999,15927,.3400815E-5,-.35E-6,0
TIANMU-1 07,2023-101A,2026-07-20T14:03:47.611008,15.30152130,.00033665,97.2573,251.4915,53.4241,306.7309,0,U,57399,999,16675,.12675959E-3,.3624E-4,0
TIANMU-1 08,2023-101B,2026-07-20T13:15:37.895616,15.30155231,.00040836,97.2562,251.2246,31.7184,328.4302,0,U,57400,999,16674,.12428785E-3,.3552E-4,0
TIANMU-1 09,2023-101C,2026-07-20T14:24:46.014048,15.30197672,.00039468,97.2520,250.6703,52.5391,307.6209,0,U,57401,999,16675,.12865227E-3,.3685E-4,0
TIANMU-1 10,2023-101D,2026-07-20T13:39:01.818720,15.30171061,.00051538,97.2600,251.7240,39.6539,320.5078,0,U,57402,999,16674,.12811318E-3,.3666E-4,0
FENGYUN 3F,2023-111A,2026-07-20T14:03:58.822272,14.19943969,.00011704,98.6821,270.9700,75.2021,284.9285,0,U,57490,999,15360,.21719719E-4,.3E-7,0
ARKTIKA-M 2,2023-198A,2026-07-15T04:12:00.091584,2.00608092,.69107365,63.2178,151.2342,267.3397,18.7345,0,U,58584,999,1888,0,.129E-5,0
TIANMU-1 11,2023-205A,2026-07-20T14:26:00.854592,15.27295386,.00070518,97.3446,222.6397,238.0025,122.0529,0,U,58645,999,14262,.11997373E-3,.3136E-4,0
TIANMU-1 12,2023-205B,2026-07-18T09:53:22.905024,15.27114343,.00060948,97.3431,220.2298,220.4884,139.5903,0,U,58646,999,14227,.10886909E-3,.2823E-4,0
TIANMU-1 13,2023-205C,2026-07-20T14:35:19.230144,15.27120813,.00064212,97.3462,222.6728,191.2096,168.9001,0,U,58647,999,14260,.12320954E-3,.3205E-4,0
TIANMU-1 14,2023-205D,2026-07-20T14:12:37.445184,15.27164658,.00070127,97.3399,221.8130,198.5272,161.5713,0,U,58648,999,14260,.12299916E-3,.3204E-4,0
TIANMU-1 19,2023-208A,2026-07-20T14:27:11.354400,15.32025380,.00051313,97.4525,318.0886,178.9933,181.1320,0,U,58660,999,14244,.16488178E-3,.502E-4,0
